{
  "ok": true,
  "region": "it-abruzzo",
  "category": "theme_park",
  "generatedAt": "2026-01-05T11:02:43.450Z",
  "bbox": [
    13,
    41.9,
    14.9,
    42.9
  ],
  "count": 9,
  "endpoint": "https://overpass-api.de/api/interpreter",
  "notes": [],
  "pois": [
    {
      "id": "node_7762864144",
      "name": "Bar Mirella 2",
      "lat": 42.4191112,
      "lon": 14.1893017,
      "category": "theme_park",
      "visibility": "classica",
      "tags": {
        "amenity": "bar",
        "leisure": "amusement_arcade",
        "name": "Bar Mirella 2",
        "opening_hours": "Tu-Su 09:00-00:30",
        "phone": "+39 085 446 1999"
      },
      "beauty_score": 0.72
    },
    {
      "id": "node_7626011264",
      "name": "Respawn Zone Gaming Bar",
      "lat": 42.4645061,
      "lon": 14.2123112,
      "category": "theme_park",
      "visibility": "classica",
      "tags": {
        "leisure": "amusement_arcade",
        "name": "Respawn Zone Gaming Bar",
        "opening_hours": "Mo-Su 16:00-02:00",
        "website": "https://www.respawnzone.it/"
      },
      "beauty_score": 0.72
    },
    {
      "id": "node_7024349290",
      "name": "Sala giochi Riò Enjoy",
      "lat": 42.5217699,
      "lon": 14.1508564,
      "category": "theme_park",
      "visibility": "classica",
      "tags": {
        "leisure": "amusement_arcade",
        "name": "Sala giochi Riò Enjoy",
        "opening_hours": "Mo-Su 09:00-24:00"
      },
      "beauty_score": 0.72
    },
    {
      "id": "node_7884166639",
      "name": "Joka Village - Sala giochi",
      "lat": 42.5722653,
      "lon": 14.0965816,
      "category": "theme_park",
      "visibility": "classica",
      "tags": {
        "leisure": "amusement_arcade",
        "name": "Joka Village - Sala giochi",
        "phone": "+39 085 203 8189",
        "website": "https://www.centrouniverso.it/negozi/joka-village/"
      },
      "beauty_score": 0.72
    },
    {
      "id": "way_909125100",
      "name": "Il Regno dei Mazzamurelli",
      "lat": 42.2942899,
      "lon": 13.6510579,
      "category": "theme_park",
      "visibility": "classica",
      "tags": {
        "name": "Il Regno dei Mazzamurelli",
        "tourism": "theme_park",
        "website": "https://www.ilregnodeimazzamurelli.it/"
      },
      "beauty_score": 0.72
    },
    {
      "id": "way_330100723",
      "name": "Parco Avventura Majella",
      "lat": 42.1769644,
      "lon": 14.1705937,
      "category": "theme_park",
      "visibility": "classica",
      "tags": {
        "fee": "yes",
        "leisure": "sports_centre",
        "name": "Parco Avventura Majella",
        "opening_hours": "Mar-Jun Sa,Su 10:00-19:00; Apr 01,Apr 25,Apr 26 10:00-19:00; Jun 17-Sep 22 10:00-19:00; Sep 28,Sep 29 10:00-19:00; Jul-Aug 10:00-20:00; Oct 10:00-18:00; Nov 01,Nov 10:00-17:00",
        "phone": "+39 0871 335 544",
        "sport": "climbing_adventure",
        "tourism": "theme_park",
        "website": "https://www.parconaturalemajella.it/parco-avventura"
      },
      "beauty_score": 0.72
    },
    {
      "id": "way_879183638",
      "name": "La Contea Gentile",
      "lat": 42.2731087,
      "lon": 14.1912706,
      "category": "theme_park",
      "visibility": "classica",
      "tags": {
        "name": "La Contea Gentile",
        "operator": "Nicolas Gentile",
        "tourism": "theme_park",
        "website": "https://www.laconteagentile.it/"
      },
      "beauty_score": 0.72
    },
    {
      "id": "way_130678724",
      "name": "Acqualand del Vasto",
      "lat": 42.1500605,
      "lon": 14.6965756,
      "category": "theme_park",
      "visibility": "classica",
      "tags": {
        "contact:phone": "+39 0873 310130;+39 0873 310709",
        "leisure": "water_park",
        "name": "Acqualand del Vasto",
        "opening_hours": "PH,Mo-Su 10:00-18:00",
        "website": "https://aqualandvasto.com/",
        "wikidata": "Q3621088",
        "wikipedia": "it:Aqualand del Vasto"
      },
      "beauty_score": 0.72
    },
    {
      "id": "way_99581742",
      "name": "Onda Blu",
      "lat": 42.7819954,
      "lon": 13.9383054,
      "category": "theme_park",
      "visibility": "classica",
      "tags": {
        "contact:phone": "+39 0861 7791",
        "leisure": "water_park",
        "name": "Onda Blu",
        "opening_hours": "Jun 22-Sep 1: Mo-Su 10:00-18:30",
        "sport": "swimming",
        "tourism": "theme_park",
        "website": "https://www.acquaparkondablu.it/"
      },
      "beauty_score": 0.72
    }
  ]
}